{
  "type": "FeatureCollection",
  "features": [
    {
      "type": "Feature",
      "id": 1,
      "name": "Time Bomb Vintage",
      "properties": {
        "audio": "time_bomb_isolated.wav",
        "emotional_layer": "time_bomb_emotional.wav", 
        "image": "avg_1.jpg"
      },
      "geometry": {
        "coordinates": [-93.2204767326635, 44.94870784872086],
        "type": "Point"
      }
    },
    {
      "type": "Feature",
      "id": 2,
      "name": "The Graduate",
      "properties": {
        "audio": "song.wav",
        "emotional_layer": "song3.wav",
        "image": "avg_9.jpg"
      },
      "geometry": {
        "coordinates": [-93.22936686293409, 44.9740123079913],
        "type": "Point"
      }
    },
    {
      "type": "Feature",
      "id": 3,
      "name": "Home",
      "properties": {
        "audio": "time_bomb_isolated.wav",
        "emotional_layer": "time_bomb_emotional.wav",
        "image": "avg_3.jpg"
      },
      "geometry": {
        "coordinates": [-93.22049001420694, 44.94806513837378],
        "type": "Point"
      }
    },
    {
      "type": "Feature",
      "id": 4,
      "name": "Alex Pretti Memorial",
      "properties": {
        "audio": "song.wav",
        "emotional_layer": "song3.wav",
        "image": "avg_4.jpg"
      },
      "geometry": {
        "coordinates": [-93.27801365208194, 44.955092243219696],
        "type": "Point"
      }
    },
    {
      "type": "Feature",
      "id": 5,
      "name": "River",
      "properties": {
        "audio": "time_bomb_isolated.wav",
        "emotional_layer": "song3.wav",
        "image": "avg_5.jpg"
      },
      "geometry": {
        "coordinates": [-93.23617815745224, 44.96870567616088],
        "type": "Point"
      }
    },
    {
      "type": "Feature",
      "id": 6,
      "name": "Aarush Home and West Bank",
      "properties": {
        "audio": "song2.wav",
        "emotional_layer": "song3.wav",
        "image": "avg_6.jpg"
      },
      "geometry": {
        "coordinates": [-93.24848153806573, 44.97375989667657],
        "type": "Point"
      }
    },
    {
      "type": "Feature",
      "id": 7,
      "name": "Government Plaza",
      "properties": {
        "audio": "song2.wav",
        "emotional_layer": "song3.wav",
        "image": "avg_7.jpg"
      },
      "geometry": {
        "coordinates": [-93.26616149923254, 44.9764441164582],
        "type": "Point"
      }
    },
    {
      "type": "Feature",
      "id": 8,
      "name": "Stone Arch Bridge",
      "properties": {
        "audio": "time_bomb_isolated.wav",
        "emotional_layer": "song3.wav",
        "image": "avg_8.jpg"
      },
      "geometry": {
        "coordinates": [-93.2537303155663, 44.980726353247064],
        "type": "Point"
      }
    }
  ]
}
